CCSDS_OMM_VERS = 2.0
CREATION_DATE  = 
ORIGINATOR     = 

OBJECT_NAME    = STARLINK-36319
OBJECT_ID      = 2026-038K
CENTER_NAME    = EARTH
REF_FRAME      = TEME
TIME_SYSTEM    = UTC
MEAN_ELEMENT_THEORY = SGP/SGP4

EPOCH          = 2026-03-05T06:00:02.999808
MEAN_MOTION    = 16.02306182
ECCENTRICITY   = .00012419
INCLINATION    = 97.2753
RA_OF_ASC_NODE = 74.1808
ARG_OF_PERICENTER = 71.0597
MEAN_ANOMALY   = 69.8632

EPHEMERIS_TYPE = 0
CLASSIFICATION_TYPE = U
NORAD_CAT_ID   = 67970
ELEMENT_SET_NO = 999
REV_AT_EPOCH   = 245
BSTAR          = -.25837084E-2
MEAN_MOTION_DOT = -.1483757E-1
MEAN_MOTION_DDOT = .69862933E-3

CCSDS_OMM_VERS = 2.0
CREATION_DATE  = 
ORIGINATOR     = 

OBJECT_NAME    = STARLINK-36710
OBJECT_ID      = 2026-038L
CENTER_NAME    = EARTH
REF_FRAME      = TEME
TIME_SYSTEM    = UTC
MEAN_ELEMENT_THEORY = SGP/SGP4

EPOCH          = 2026-03-05T06:00:02.999808
MEAN_MOTION    = 16.02584508
ECCENTRICITY   = .00011115
INCLINATION    = 97.2750
RA_OF_ASC_NODE = 74.1834
ARG_OF_PERICENTER = 72.9873
MEAN_ANOMALY   = 73.3233

EPHEMERIS_TYPE = 0
CLASSIFICATION_TYPE = U
NORAD_CAT_ID   = 67971
ELEMENT_SET_NO = 999
REV_AT_EPOCH   = 248
BSTAR          = -.25239774E-2
MEAN_MOTION_DOT = -.1473257E-1
MEAN_MOTION_DDOT = .69171518E-3

CCSDS_OMM_VERS = 2.0
CREATION_DATE  = 
ORIGINATOR     = 

OBJECT_NAME    = STARLINK-36894
OBJECT_ID      = 2026-038M
CENTER_NAME    = EARTH
REF_FRAME      = TEME
TIME_SYSTEM    = UTC
MEAN_ELEMENT_THEORY = SGP/SGP4

EPOCH          = 2026-03-05T06:00:02.999808
MEAN_MOTION    = 16.02706831
ECCENTRICITY   = .0001227
INCLINATION    = 97.2748
RA_OF_ASC_NODE = 74.1843
ARG_OF_PERICENTER = 66.8947
MEAN_ANOMALY   = 81.8576

EPHEMERIS_TYPE = 0
CLASSIFICATION_TYPE = U
NORAD_CAT_ID   = 67972
ELEMENT_SET_NO = 999
REV_AT_EPOCH   = 248
BSTAR          = -.24941067E-2
MEAN_MOTION_DOT = -.1466371E-1
MEAN_MOTION_DDOT = .68670643E-3

CCSDS_OMM_VERS = 2.0
CREATION_DATE  = 
ORIGINATOR     = 

OBJECT_NAME    = STARLINK-36900
OBJECT_ID      = 2026-038N
CENTER_NAME    = EARTH
REF_FRAME      = TEME
TIME_SYSTEM    = UTC
MEAN_ELEMENT_THEORY = SGP/SGP4

EPOCH          = 2026-03-05T06:00:02.999808
MEAN_MOTION    = 16.02930108
ECCENTRICITY   = .00010546
INCLINATION    = 97.2746
RA_OF_ASC_NODE = 74.1864
ARG_OF_PERICENTER = 78.1103
MEAN_ANOMALY   = 75.5268

EPHEMERIS_TYPE = 0
CLASSIFICATION_TYPE = U
NORAD_CAT_ID   = 67973
ELEMENT_SET_NO = 999
REV_AT_EPOCH   = 248
BSTAR          = -.23898847E-2
MEAN_MOTION_DOT = -.1424046E-1
MEAN_MOTION_DDOT = .65206799E-3

CCSDS_OMM_VERS = 2.0
CREATION_DATE  = 
ORIGINATOR     = 

OBJECT_NAME    = STARLINK-36901
OBJECT_ID      = 2026-038P
CENTER_NAME    = EARTH
REF_FRAME      = TEME
TIME_SYSTEM    = UTC
MEAN_ELEMENT_THEORY = SGP/SGP4

EPOCH          = 2026-03-05T06:00:02.999808
MEAN_MOTION    = 16.02826231
ECCENTRICITY   = .00012154
INCLINATION    = 97.2748
RA_OF_ASC_NODE = 74.1851
ARG_OF_PERICENTER = 68.2710
MEAN_ANOMALY   = 82.7957

EPHEMERIS_TYPE = 0
CLASSIFICATION_TYPE = U
NORAD_CAT_ID   = 67974
ELEMENT_SET_NO = 999
REV_AT_EPOCH   = 248
BSTAR          = -.24762123E-2
MEAN_MOTION_DOT = -.1466062E-1
MEAN_MOTION_DDOT = .68739914E-3

CCSDS_OMM_VERS = 2.0
CREATION_DATE  = 
ORIGINATOR     = 

OBJECT_NAME    = STARLINK-36883
OBJECT_ID      = 2026-038Q
CENTER_NAME    = EARTH
REF_FRAME      = TEME
TIME_SYSTEM    = UTC
MEAN_ELEMENT_THEORY = SGP/SGP4

EPOCH          = 2026-03-05T06:00:02.999808
MEAN_MOTION    = 16.03443623
ECCENTRICITY   = .00012476
INCLINATION    = 97.2741
RA_OF_ASC_NODE = 74.1905
ARG_OF_PERICENTER = 69.1223
MEAN_ANOMALY   = 94.3580

EPHEMERIS_TYPE = 0
CLASSIFICATION_TYPE = U
NORAD_CAT_ID   = 67975
ELEMENT_SET_NO = 999
REV_AT_EPOCH   = 248
BSTAR          = -.22921688E-2
MEAN_MOTION_DOT = -.140796E-1
MEAN_MOTION_DDOT = .64234426E-3

CCSDS_OMM_VERS = 2.0
CREATION_DATE  = 
ORIGINATOR     = 

OBJECT_NAME    = STARLINK-36880
OBJECT_ID      = 2026-038R
CENTER_NAME    = EARTH
REF_FRAME      = TEME
TIME_SYSTEM    = UTC
MEAN_ELEMENT_THEORY = SGP/SGP4

EPOCH          = 2026-03-05T06:00:02.999808
MEAN_MOTION    = 16.03092649
ECCENTRICITY   = .00012365
INCLINATION    = 97.2744
RA_OF_ASC_NODE = 74.1873
ARG_OF_PERICENTER = 75.5310
MEAN_ANOMALY   = 80.5599

EPHEMERIS_TYPE = 0
CLASSIFICATION_TYPE = U
NORAD_CAT_ID   = 67976
ELEMENT_SET_NO = 999
REV_AT_EPOCH   = 248
BSTAR          = -.24312104E-2
MEAN_MOTION_DOT = -.1462149E-1
MEAN_MOTION_DDOT = .68614074E-3

CCSDS_OMM_VERS = 2.0
CREATION_DATE  = 
ORIGINATOR     = 

OBJECT_NAME    = STARLINK-36904
OBJECT_ID      = 2026-038S
CENTER_NAME    = EARTH
REF_FRAME      = TEME
TIME_SYSTEM    = UTC
MEAN_ELEMENT_THEORY = SGP/SGP4

EPOCH          = 2026-03-05T06:00:02.999808
MEAN_MOTION    = 16.03348818
ECCENTRICITY   = .00013207
INCLINATION    = 97.2741
RA_OF_ASC_NODE = 74.1891
ARG_OF_PERICENTER = 70.5319
MEAN_ANOMALY   = 90.4572

EPHEMERIS_TYPE = 0
CLASSIFICATION_TYPE = U
NORAD_CAT_ID   = 67977
ELEMENT_SET_NO = 999
REV_AT_EPOCH   = 248
BSTAR          = -.23847516E-2
MEAN_MOTION_DOT = -.1456099E-1
MEAN_MOTION_DDOT = .68294012E-3

CCSDS_OMM_VERS = 2.0
CREATION_DATE  = 
ORIGINATOR     = 

OBJECT_NAME    = STARLINK-36364
OBJECT_ID      = 2026-038T
CENTER_NAME    = EARTH
REF_FRAME      = TEME
TIME_SYSTEM    = UTC
MEAN_ELEMENT_THEORY = SGP/SGP4

EPOCH          = 2026-03-05T06:00:02.999808
MEAN_MOTION    = 16.03718741
ECCENTRICITY   = .00010627
INCLINATION    = 97.2736
RA_OF_ASC_NODE = 74.1929
ARG_OF_PERICENTER = 88.3301
MEAN_ANOMALY   = 80.9318

EPHEMERIS_TYPE = 0
CLASSIFICATION_TYPE = U
NORAD_CAT_ID   = 67978
ELEMENT_SET_NO = 999
REV_AT_EPOCH   = 248
BSTAR          = -.21774554E-2
MEAN_MOTION_DOT = -.1359955E-1
MEAN_MOTION_DDOT = .60429024E-3

CCSDS_OMM_VERS = 2.0
CREATION_DATE  = 
ORIGINATOR     = 

OBJECT_NAME    = STARLINK-36359
OBJECT_ID      = 2026-038U
CENTER_NAME    = EARTH
REF_FRAME      = TEME
TIME_SYSTEM    = UTC
MEAN_ELEMENT_THEORY = SGP/SGP4

EPOCH          = 2026-03-05T06:00:02.999808
MEAN_MOTION    = 16.03197569
ECCENTRICITY   = .00010833
INCLINATION    = 97.2742
RA_OF_ASC_NODE = 74.1876
ARG_OF_PERICENTER = 80.5880
MEAN_ANOMALY   = 77.5898

EPHEMERIS_TYPE = 0
CLASSIFICATION_TYPE = U
NORAD_CAT_ID   = 67979
ELEMENT_SET_NO = 999
REV_AT_EPOCH   = 248
BSTAR          = -.24119602E-2
MEAN_MOTION_DOT = -.145955E-1
MEAN_MOTION_DDOT = .68472249E-3

CCSDS_OMM_VERS = 2.0
CREATION_DATE  = 
ORIGINATOR     = 

OBJECT_NAME    = STARLINK-36882
OBJECT_ID      = 2026-038V
CENTER_NAME    = EARTH
REF_FRAME      = TEME
TIME_SYSTEM    = UTC
MEAN_ELEMENT_THEORY = SGP/SGP4

EPOCH          = 2026-03-05T06:00:02.999808
MEAN_MOTION    = 16.03644657
ECCENTRICITY   = .00012349
INCLINATION    = 97.2737
RA_OF_ASC_NODE = 74.1915
ARG_OF_PERICENTER = 70.8448
MEAN_ANOMALY   = 95.6221

EPHEMERIS_TYPE = 0
CLASSIFICATION_TYPE = U
NORAD_CAT_ID   = 67980
ELEMENT_SET_NO = 999
REV_AT_EPOCH   = 248
BSTAR          = -.23324775E-2
MEAN_MOTION_DOT = -.144936E-1
MEAN_MOTION_DDOT = .67946074E-3

CCSDS_OMM_VERS = 2.0
CREATION_DATE  = 
ORIGINATOR     = 

OBJECT_NAME    = STARLINK-36874
OBJECT_ID      = 2026-038W
CENTER_NAME    = EARTH
REF_FRAME      = TEME
TIME_SYSTEM    = UTC
MEAN_ELEMENT_THEORY = SGP/SGP4

EPOCH          = 2026-03-05T06:00:02.999808
MEAN_MOTION    = 16.03891038
ECCENTRICITY   = .00012241
INCLINATION    = 97.2736
RA_OF_ASC_NODE = 74.1937
ARG_OF_PERICENTER = 67.7197
MEAN_ANOMALY   = 103.5215

EPHEMERIS_TYPE = 0
CLASSIFICATION_TYPE = U
NORAD_CAT_ID   = 67981
ELEMENT_SET_NO = 999
REV_AT_EPOCH   = 248
BSTAR          = -.22881523E-2
MEAN_MOTION_DOT = -.1442823E-1
MEAN_MOTION_DDOT = .67576043E-3

